FENGYUN 3C              
1 39260U 13052A   22287.12801729  .00000144  00000+0  93925-4 0  9992
2 39260  98.4480 309.1974 0010128 296.5060  63.5081 14.15950077468716
METEOR-M 2              
1 40069U 14037A   22287.48588044  .00000077  00000+0  55004-4 0  9997
2 40069  98.4304 299.8516 0005399 348.7612  11.3447 14.20722324428760
HIMAWARI-8              
1 40267U 14060A   22286.86921058 -.00000277  00000+0  00000+0 0  9994
2 40267   0.0265 151.2465 0001285  75.8317 248.9187  1.00272350 29308
FENGYUN 2G              
1 40367U 14090A   22286.78036201 -.00000303  00000+0  00000+0 0  9996
2 40367   2.2287  88.2272 0002964 199.1621 115.5047  1.00267963 28537
METEOSAT-11 (MSG-4)     
1 40732U 15034A   22286.84007552 -.00000005  00000+0  00000+0 0  9994
2 40732   0.5461  74.0709 0000544  69.8641 180.8098  1.00277848 26568
ELEKTRO-L 2             
1 41105U 15074A   22287.60331100 -.00000115  00000+0  00000+0 0  9999
2 41105   3.2819  86.7010 0002733 113.8663  25.3107  1.00271878 25066
HIMAWARI-9              
1 41836U 16064A   22287.41896939 -.00000276  00000+0  00000+0 0  9993
2 41836   0.0062 143.1149 0001237  94.6686  76.7367  1.00269430 21843
GOES 16                 
1 41866U 16071A   22287.34867685 -.00000250  00000+0  00000+0 0  9994
2 41866   0.0608 284.7546 0000958 328.1936 180.2762  1.00271589 21654
FENGYUN 4A              
1 41882U 16077A   22287.26819995 -.00000330  00000+0  00000+0 0  9999
2 41882   0.1858 285.6585 0003676 114.2870 183.8926  1.00264184 21524
CYGFM05                 
1 41884U 16078A   22286.40724219  .00005080  00000+0  25218-3 0  9999
2 41884  34.9552 186.9060 0013538  65.8810 294.3316 15.17001490322703
CYGFM04                 
1 41885U 16078B   22286.41739585  .00005542  00000+0  27080-3 0  9995
2 41885  34.9482 175.4063 0011985  85.5831 274.6250 15.17547227322754
CYGFM02                 
1 41886U 16078C   22286.40523687  .00005544  00000+0  27056-3 0  9994
2 41886  34.9573 177.7292 0012645  78.6039 281.6093 15.17584719322831
CYGFM01                 
1 41887U 16078D   22287.14833681  .00005262  00000+0  26256-3 0  9993
2 41887  34.9516 184.8690 0013917  72.2492 287.9738 15.16810951322885
CYGFM08                 
1 41888U 16078E   22286.10883738  .00005967  00000+0  29353-3 0  9990
2 41888  34.9490 183.4392 0013165  76.0790 284.1385 15.17285608322747
CYGFM06                 
1 41889U 16078F   22287.37112584  .00005112  00000+0  24952-3 0  9997
2 41889  34.9565 170.3608 0011562  87.5124 272.6911 15.17611055323054
CYGFM07                 
1 41890U 16078G   22286.37397151  .00005256  00000+0  25710-3 0  9995
2 41890  34.9505 175.4413 0011408  83.0899 277.1110 15.17532197322755
CYGFM03                 
1 41891U 16078H   22286.76737055  .00004989  00000+0  24408-3 0  9995
2 41891  34.9535 173.4877 0010879  84.8659 275.3294 15.17539781322800
FENGYUN 3D              
1 43010U 17072A   22287.42828429  .00000160  00000+0  97710-4 0  9999
2 43010  98.8257 231.4892 0000915 296.0656  64.0422 14.19231135254646
NOAA 20                 
1 43013U 17073A   22287.55360332  .00000108  00000+0  72168-4 0  9993
2 43013  98.7242 224.2771 0001639  81.9386 278.1976 14.19550491254127
GOES 17                 
1 43226U 18022A   22286.71770403  .00000096  00000+0  00000+0 0  9992
2 43226   0.0680 282.3841 0000499 308.8282 272.0932  1.00272403 16960
FENGYUN 2H              
1 43491U 18050A   22286.80881066 -.00000129  00000+0  00000+0 0  9993
2 43491   1.4432  94.8500 0003704  71.3166 226.4595  1.00272882 15976
METOP-C                 
1 43689U 18087A   22287.46660944  .00000140  00000+0  84254-4 0  9995
2 43689  98.7208 345.5022 0004057  63.9591 296.2003 14.21476203204217
GEO-KOMPSAT-2A          
1 43823U 18100A   22286.60237458 -.00000346  00000+0  00000+0 0  9997
2 43823   0.0505  45.7505 0001127 110.0922 211.4170  1.00269479 14159
METEOR-M2 2             
1 44387U 19038A   22287.48459733  .00000078  00000+0  53562-4 0  9990
2 44387  98.7374 247.3854 0000696 351.3066   8.8101 14.23724747170348
FENGYUN 3E              
1 49008U 21062A   22287.47507295  .00000053  00000+0  45480-4 0  9994
2 49008  98.7170 287.5839 0002268  34.3364 325.7972 14.19741910 66204
GOES 18                 
1 51850U 22021A   22287.55788205  .00000095  00000+0  00000+0 0  9999
2 51850   0.0140  68.2990 0002670 157.7679 220.9078  1.00270394  2351
STRIX-1                 
1 53815U 22113A   22287.44143055  .00006124  00000+0  49555-3 0  9991
2 53815  97.6607 337.9229 0012835 203.1246 156.9360 15.00053218  4280
ELECTRON KICK STAGE R/B 
1 53817U 22113C   22286.89998160  .00007533  00000+0  60142-3 0  9996
2 53817  97.6592 337.4062 0013233 196.6104 163.4691 15.00491416  4205
STARLINK-4749           
1 53818U 22114A   22287.66667824  .00015450  00000+0  11432-3 0  9999
2 53818  53.2171 132.0044 0001174 119.5392 316.4853 15.73195023  4610
STARLINK-4738           
1 53819U 22114B   22287.66667824  .00067908  00000+0  48509-3 0  9990
2 53819  53.2173 131.9971 0001035  80.2584 358.7597 15.73164835  4614
STARLINK-4758           
1 53820U 22114C   22287.66667824  .00046413  00000+0  33361-3 0  9990
2 53820  53.2170 132.0032 0001389 113.7726 322.8554 15.73177336  4610
STARLINK-4752           
1 53821U 22114D   22287.33335648  .00095093  00000+0  65925-3 0  9990
2 53821  53.2136 133.6388 0000949 120.4151 232.4567 15.73728168  4550
STARLINK-4748           
1 53823U 22114F   22287.66667824  .00016287  00000+0  12026-3 0  9994
2 53823  53.2172 130.4500 0001353  51.4261  61.7834 15.73194946  4627
STARLINK-4757           
1 53824U 22114G   22287.66667824  .00067646  00000+0  48325-3 0  9991
2 53824  53.2170 131.9960 0001486  89.0593 351.1510 15.73164677  4618
STARLINK-4751           
1 53825U 22114H   22287.66667824  .00080202  00000+0  57146-3 0  9996
2 53825  53.2170 131.9970 0001413  92.7771 346.8405 15.73157157  4618
STARLINK-4756           
1 53826U 22114J   22287.66667824  .00035980  00000+0  25986-3 0  9997
2 53826  53.2170 131.9914 0001341 126.8407 315.7458 15.73183268  4617
STARLINK-4764           
1 53827U 22114K   22287.66667824  .00041906  00000+0  30176-3 0  9990
2 53827  53.2172 131.9945 0001307  65.5170  15.2819 15.73180376  4612
STARLINK-4760           
1 53828U 22114L   22287.66667824  .00053661  00000+0  38475-3 0  9992
2 53828  53.2171 131.9895 0001479 109.1554 334.0317 15.73173297  4616
STARLINK-4759           
1 53829U 22114M   22287.66667824  .00041976  00000+0  30226-3 0  9995
2 53829  53.2174 131.9932 0001444  75.6819   5.7134 15.73180263  4615
STARLINK-4761           
1 53830U 22114N   22287.66667824  .00071801  00000+0  51246-3 0  9992
2 53830  53.2171 131.9876 0001411 104.4135 339.9706 15.73162509  4617
STARLINK-4649           
1 53831U 22114P   22287.66667824  .00067460  00000+0  48194-3 0  9997
2 53831  53.2176 131.9924 0001267 112.4645 329.5339 15.73164918  4614
STARLINK-4747           
1 53832U 22114Q   22287.66667824  .00022388  00000+0  16357-3 0  9994
2 53832  53.2170 131.9854 0001536  94.7356 350.8285 15.73190933  4614
STARLINK-4771           
1 53833U 22114R   22287.66667824  .00077331  00000+0  55130-3 0  9995
2 53833  53.2172 131.9888 0001298 112.3302 331.4590 15.73159327  4613
STARLINK-4737           
1 53834U 22114S   22287.66667824  .00064426  00000+0  46059-3 0  9997
2 53834  53.2172 131.9827 0001512 121.8594 324.9071 15.73166898  4616
STARLINK-4783           
1 53835U 22114T   22287.66667824  .00082374  00000+0  58670-3 0  9992
2 53835  53.2171 131.9864 0001042  90.5393 354.4436 15.73156106  4618
STARLINK-4778           
1 53836U 22114U   22287.66667824  .00067019  00000+0  47883-3 0  9996
2 53836  53.2173 131.9803 0001391  95.4769 352.4826 15.73165428  4610
STARLINK-4776           
1 53837U 22114V   22287.66667824  .00071652  00000+0  51141-3 0  9997
2 53837  53.2170 131.9839 0001767 101.3863 344.7862 15.73162240  4619
STARLINK-4773           
1 53838U 22114W   22287.66667824  .00035706  00000+0  25792-3 0  9991
2 53838  53.2170 131.9798 0001232  96.3657 352.1815 15.73183670  4616
STARLINK-4784           
1 53839U 22114X   22287.66667824  .00010667  00000+0  80330-4 0  9991
2 53839  53.2171 131.9819 0001370  91.5242 355.8252 15.73197690  4614
STARLINK-4766           
1 53840U 22114Y   22287.66667824  .00011490  00000+0  86181-4 0  9998
2 53840  53.2172 131.9760 0001324 114.0110 336.3193 15.73197281  4610
STARLINK-4750           
1 53841U 22114Z   22287.66667824  .00066137  00000+0  47262-3 0  9993
2 53841  53.2171 131.9778 0001703 101.1399 348.0111 15.73166134  4619
STARLINK-4754           
1 53842U 22114AA  22287.66667824  .00074721  00000+0  53298-3 0  9998
2 53842  53.2172 131.9742 0001273  92.6491 358.8888 15.73160605  4618
STARLINK-4769           
1 53843U 22114AB  22287.66667824  .00027904  00000+0  20267-3 0  9990
2 53843  53.2172 131.9768 0001283 101.2877 348.4495 15.73188539  4618
STARLINK-4745           
1 53844U 22114AC  22287.66667824  .00067421  00000+0  48167-3 0  9998
2 53844  53.2171 131.9720 0001169  98.0348 354.6934 15.73164833  4613
STARLINK-4753           
1 53845U 22114AD  22287.66667824  .00041206  00000+0  29682-3 0  9993
2 53845  53.2171 131.9749 0001581  88.9750   1.9580 15.73180400  4615
STARLINK-4746           
1 53846U 22114AE  22287.66667824  .00033805  00000+0  24447-3 0  9994
2 53846  53.2171 131.9691 0001466 109.0286 344.8834 15.73184503  4612
STARLINK-4777           
1 53847U 22114AF  22287.66667824  .00031427  00000+0  22763-3 0  9992
2 53847  53.2171 131.9721 0001242 100.1955 351.9269 15.73186540  4618
STARLINK-4780           
1 53848U 22114AG  22287.66667824  .00008123  00000+0  62238-4 0  9992
2 53848  53.2171 131.9666 0001309 115.0883 340.0097 15.73199477  4617
STARLINK-4770           
1 53849U 22114AH  22287.66667824  .00019380  00000+0  14222-3 0  9999
2 53849  53.2171 131.9701 0001063 103.7788 349.5336 15.73192821  4619
